{
  "type": "FeatureCollection",
  "features": [
    {
      "type": "Feature",
      "properties": {
        "norad_id": 43602,
        "name": "BEIDOU-3 M12 (C26)",
        "group": "beidou",
        "lat": -51.88022622250853,
        "lon": 120.08613101512799,
        "alt_km": 21545.76212965723,
        "timestamp": "2025-12-19T10:50:01.466320+00:00",
        "meta_object_name": "BEIDOU-3 M12 (C26)",
        "meta_object_id": "2018-067A",
        "meta_epoch": "2025-12-17T22:53:45.555072",
        "meta_mean_motion": 1.86227791,
        "meta_eccentricity": 0.00092249,
        "meta_inclination": 54.1833,
        "meta_ra_of_asc_node": 187.186,
        "meta_arg_of_pericenter": 41.0055,
        "meta_mean_anomaly": 319.1284,
        "meta_ephemeris_type": 0,
        "meta_classification_type": "U",
        "meta_norad_cat_id": 43602,
        "meta_element_set_no": 999,
        "meta_rev_at_epoch": 4974,
        "meta_bstar": 0,
        "meta_mean_motion_dot": 1.1e-06,
        "meta_mean_motion_ddot": 0,
        "tle_line1": "1 43602U 18067A   25351.95399948  .00000110  00000+0  00000+0 0  9999",
        "tle_line2": "2 43602  54.1833 187.1860 0009224  41.0055 319.1284  1.86227791 49749"
      },
      "geometry": {
        "type": "Point",
        "coordinates": [
          120.08613101512799,
          -51.88022622250853
        ]
      }
    },
    {
      "type": "Feature",
      "properties": {
        "norad_id": 43603,
        "name": "BEIDOU-3 M11 (C25)",
        "group": "beidou",
        "lat": -11.189271005830047,
        "lon": 15.323264558739615,
        "alt_km": 21544.515035474436,
        "timestamp": "2025-12-19T10:50:01.466334+00:00",
        "meta_object_name": "BEIDOU-3 M11 (C25)",
        "meta_object_id": "2018-067B",
        "meta_epoch": "2025-12-18T02:07:28.250688",
        "meta_mean_motion": 1.86227303,
        "meta_eccentricity": 0.00056103,
        "meta_inclination": 54.1805,
        "meta_ra_of_asc_node": 187.1455,
        "meta_arg_of_pericenter": 36.7465,
        "meta_mean_anomaly": 323.3559,
        "meta_ephemeris_type": 0,
        "meta_classification_type": "U",
        "meta_norad_cat_id": 43603,
        "meta_element_set_no": 999,
        "meta_rev_at_epoch": 4977,
        "meta_bstar": 0,
        "meta_mean_motion_dot": 1.09e-06,
        "meta_mean_motion_ddot": 0,
        "tle_line1": "1 43603U 18067B   25352.08852142  .00000109  00000+0  00000+0 0  9993",
        "tle_line2": "2 43603  54.1805 187.1455 0005610  36.7465 323.3559  1.86227303 49774"
      },
      "geometry": {
        "type": "Point",
        "coordinates": [
          15.323264558739615,
          -11.189271005830047
        ]
      }
    },
    {
      "type": "Feature",
      "properties": {
        "norad_id": 43622,
        "name": "BEIDOU-3 M13 (C32)",
        "group": "beidou",
        "lat": -34.543679221560495,
        "lon": -84.26823996726486,
        "alt_km": 21528.329073724664,
        "timestamp": "2025-12-19T10:50:01.466345+00:00",
        "meta_object_name": "BEIDOU-3 M13 (C32)",
        "meta_object_id": "2018-072A",
        "meta_epoch": "2025-12-18T01:04:45.720768",
        "meta_mean_motion": 1.86231064,
        "meta_eccentricity": 0.00060078,
        "meta_inclination": 56.4641,
        "meta_ra_of_asc_node": 68.6443,
        "meta_arg_of_pericenter": 298.9487,
        "meta_mean_anomaly": 61.0199,
        "meta_ephemeris_type": 0,
        "meta_classification_type": "U",
        "meta_norad_cat_id": 43622,
        "meta_element_set_no": 999,
        "meta_rev_at_epoch": 4928,
        "meta_bstar": 0,
        "meta_mean_motion_dot": -6.7e-07,
        "meta_mean_motion_ddot": 0,
        "tle_line1": "1 43622U 18072A   25352.04497362 -.00000067  00000+0  00000+0 0  9999",
        "tle_line2": "2 43622  56.4641  68.6443 0006007 298.9487  61.0199  1.86231064 49286"
      },
      "geometry": {
        "type": "Point",
        "coordinates": [
          -84.26823996726486,
          -34.543679221560495
        ]
      }
    },
    {
      "type": "Feature",
      "properties": {
        "norad_id": 43623,
        "name": "BEIDOU-3 M14 (C33)",
        "group": "beidou",
        "lat": -37.49954299220851,
        "lon": 38.07386466674766,
        "alt_km": 21523.652607738233,
        "timestamp": "2025-12-19T10:50:01.466357+00:00",
        "meta_object_name": "BEIDOU-3 M14 (C33)",
        "meta_object_id": "2018-072B",
        "meta_epoch": "2025-12-18T10:44:15.262368",
        "meta_mean_motion": 1.8623104,
        "meta_eccentricity": 0.00033898,
        "meta_inclination": 56.4661,
        "meta_ra_of_asc_node": 68.625,
        "meta_arg_of_pericenter": 331.3053,
        "meta_mean_anomaly": 28.7068,
        "meta_ephemeris_type": 0,
        "meta_classification_type": "U",
        "meta_norad_cat_id": 43623,
        "meta_element_set_no": 999,
        "meta_rev_at_epoch": 4928,
        "meta_bstar": 0,
        "meta_mean_motion_dot": -6.3e-07,
        "meta_mean_motion_ddot": 0,
        "tle_line1": "1 43623U 18072B   25352.44739887 -.00000063  00000+0  00000+0 0  9991",
        "tle_line2": "2 43623  56.4661  68.6250 0003389 331.3053  28.7068  1.86231040 49285"
      },
      "geometry": {
        "type": "Point",
        "coordinates": [
          38.07386466674766,
          -37.49954299220851
        ]
      }
    },
    {
      "type": "Feature",
      "properties": {
        "norad_id": 43647,
        "name": "BEIDOU-3 M16 (C35)",
        "group": "beidou",
        "lat": -21.972025756698013,
        "lon": 143.13812194659795,
        "alt_km": 21551.092547768527,
        "timestamp": "2025-12-19T10:50:01.466368+00:00",
        "meta_object_name": "BEIDOU-3 M16 (C35)",
        "meta_object_id": "2018-078A",
        "meta_epoch": "2025-12-18T14:31:23.928384",
        "meta_mean_motion": 1.86232416,
        "meta_eccentricity": 0.00073312,
        "meta_inclination": 54.2565,
        "meta_ra_of_asc_node": 306.3163,
        "meta_arg_of_pericenter": 19.8035,
        "meta_mean_anomaly": 340.2135,
        "meta_ephemeris_type": 0,
        "meta_classification_type": "U",
        "meta_norad_cat_id": 43647,
        "meta_element_set_no": 999,
        "meta_rev_at_epoch": 4879,
        "meta_bstar": 0,
        "meta_mean_motion_dot": -8.1e-07,
        "meta_mean_motion_ddot": 0,
        "tle_line1": "1 43647U 18078A   25352.60513806 -.00000081  00000+0  00000+0 0  9992",
        "tle_line2": "2 43647  54.2565 306.3163 0007331  19.8035 340.2135  1.86232416 48794"
      },
      "geometry": {
        "type": "Point",
        "coordinates": [
          143.13812194659795,
          -21.972025756698013
        ]
      }
    },
    {
      "type": "Feature",
      "properties": {
        "norad_id": 43648,
        "name": "BEIDOU-3 M15 (C34)",
        "group": "beidou",
        "lat": 44.17857952758358,
        "lon": 81.89185772105589,
        "alt_km": 21524.61609163451,
        "timestamp": "2025-12-19T10:50:01.466379+00:00",
        "meta_object_name": "BEIDOU-3 M15 (C34)",
        "meta_object_id": "2018-078B",
        "meta_epoch": "2025-12-18T04:44:16.550592",
        "meta_mean_motion": 1.86232281,
        "meta_eccentricity": 0.00039569,
        "meta_inclination": 54.2524,
        "meta_ra_of_asc_node": 306.3307,
        "meta_arg_of_pericenter": 20.2527,
        "meta_mean_anomaly": 339.7508,
        "meta_ephemeris_type": 0,
        "meta_classification_type": "U",
        "meta_norad_cat_id": 43648,
        "meta_element_set_no": 999,
        "meta_rev_at_epoch": 4880,
        "meta_bstar": 0,
        "meta_mean_motion_dot": -8.5e-07,
        "meta_mean_motion_ddot": 0,
        "tle_line1": "1 43648U 18078B   25352.19741378 -.00000085  00000+0  00000+0 0  9998",
        "tle_line2": "2 43648  54.2524 306.3307 0003956  20.2527 339.7508  1.86232281 48800"
      },
      "geometry": {
        "type": "Point",
        "coordinates": [
          81.89185772105589,
          44.17857952758358
        ]
      }
    },
    {
      "type": "Feature",
      "properties": {
        "norad_id": 43683,
        "name": "BEIDOU-3 G1 (C59)",
        "group": "beidou",
        "lat": -2.4786894444025465,
        "lon": 30.831342186428174,
        "alt_km": 35790.57037166055,
        "timestamp": "2025-12-19T10:50:01.466391+00:00",
        "meta_object_name": "BEIDOU-3 G1 (C59)",
        "meta_object_id": "2018-085A",
        "meta_epoch": "2025-12-18T22:31:16.603104",
        "meta_mean_motion": 1.00269058,
        "meta_eccentricity": 0.00016284,
        "meta_inclination": 2.6228,
        "meta_ra_of_asc_node": 102.7865,
        "meta_arg_of_pericenter": 47.4963,
        "meta_mean_anomaly": 55.3654,
        "meta_ephemeris_type": 0,
        "meta_classification_type": "U",
        "meta_norad_cat_id": 43683,
        "meta_element_set_no": 999,
        "meta_rev_at_epoch": 2625,
        "meta_bstar": 0,
        "meta_mean_motion_dot": -2.55e-06,
        "meta_mean_motion_ddot": 0,
        "tle_line1": "1 43683U 18085A   25352.93838661 -.00000255  00000+0  00000+0 0  9998",
        "tle_line2": "2 43683   2.6228 102.7865 0001628  47.4963  55.3654  1.00269058 26259"
      },
      "geometry": {
        "type": "Point",
        "coordinates": [
          30.831342186428174,
          -2.4786894444025465
        ]
      }
    }
  ]
}